HST                     
1 20580U 90037B   26168.14321654  .00005620  00000+0  17616-3 0  9999
2 20580  28.4720  80.8753 0001815 141.8279 218.2446 15.30747004788560
POLAR                   
1 23802U 96013A   26167.26675754  .00000137  00000+0  00000+0 0  9997
2 23802  79.8528 227.0631 6469542 209.1106  89.7802  1.29846135144846
SWAS                    
1 25560U 98071A   26168.67829905  .00002278  00000+0  14776-3 0  9998
2 25560  69.8946 226.2529 0008647 259.6664 100.3526 15.09628391497341
CXO                     
1 25867U 99040B   26169.37713324  .00000529  00000+0  00000+0 0  9998
2 25867  56.2189 116.5542 7835469 310.3049   0.1821  0.37804062 17322
XMM-NEWTON              
1 25989U 99066A   26169.34668136 -.00000002  00000+0  00000+0 0  9995
2 25989  64.4794 282.9700 4673195  64.9038   0.0897  0.50127427 23010
TERRA                   
1 25994U 99068A   26168.91590209  .00000309  00000+0  71964-4 0  9991
2 25994  97.9456 218.4333 0001636 186.9393 276.8108 14.61103628409715
CLUSTER II-FM7 (SAMBA)  
1 26410U 00041A   26168.13893488  .00013373  00000+0  00000+0 0  9990
2 26410 149.9159  50.9864 9054007 268.1291 359.6411  0.44868040 20307
CLUSTER II-FM8 (TANGO)  
1 26464U 00045B   26166.18760269  .00011725  00000+0  00000+0 0  9995
2 26464 150.1504  51.7507 9057004 268.7261   2.8044  0.44418308 20307
ODIN                    
1 26702U 01007A   26168.66594886  .00157293  00000+0  10017-2 0  9997
2 26702  97.3824 209.6389 0006523 142.4970 217.6751 15.75945231389474
TIMED                   
1 26998U 01055B   26168.61031799  .00000826  00000+0  78599-4 0  9991
2 26998  74.0674 234.1665 0001140 334.8787  25.2342 14.95295453330884
CORIOLIS                
1 27640U 03001A   26168.97229685  .00000069  00000+0  53111-4 0  9993
2 27640  98.7125 175.8451 0013424 206.4111 153.6382 14.19944946214335
SORCE                   
1 27651U 03004A   26168.73728089  .00002050  00000+0  15749-3 0  9990
2 27651  39.9904 258.5400 0016393  53.3403 306.8896 15.03715505271980
MOST                    
1 27843U 03031D   26168.63366582  .00000038  00000+0  37521-4 0  9995
2 27843  98.7044 176.3534 0008741 249.0252 110.9990 14.21322552190771
SCISAT 1                
1 27858U 03036A   26168.42822494  .00000383  00000+0  53593-4 0  9992
2 27858  73.9283 170.8638 0008538 240.6549 119.3775 14.81447732231483
SWIFT                   
1 28485U 04047A   26166.40597521  .00042527  00000+0  35480-3 0  9998
2 28485  20.5516 198.6409 0001619 255.9834 104.0432 15.68175033186589
HINODE (SOLAR-B)        
1 29479U 06041A   26168.66229436  .00000513  00000+0  96583-4 0  9996
2 29479  98.0547 184.8078 0016001 288.1134  71.8328 14.68623570 54940
SHIJIAN-6 02A (SJ-6 02A)
1 29505U 06046A   26168.94911824  .00003932  00000+0  20277-3 0  9995
2 29505  97.6355 210.0210 0004484 122.2717 237.8951 15.16947771 72389
SHIJIAN-6 02B (SJ-6 02B)
1 29506U 06046B   26168.94615858  .00000922  00000+0  76062-4 0  9994
2 29506  97.7153 198.0002 0015405  58.2945 301.9778 15.01378369 70852
FGRST (GLAST)           
1 33053U 08029A   26168.49049940  .00002189  00000+0  74437-4 0  9993
2 33053  25.5804 202.3766 0007799 332.9313  27.0818 15.23947405995887
SDO                     
1 36395U 10005A   26168.41002763 -.00000096  00000+0  00000+0 0  9992
2 36395  34.6527  86.3378 0001734  44.0102 180.8312  1.00269958 60061
CRYOSAT 2               
1 36508U 10013A   26168.90855044  .00000187  00000+0  45582-4 0  9998
2 36508  92.0356 277.4768 0002149  89.9285 270.2168 14.51899393858185
X-SAT                   
1 37389U 11015C   26168.92757899  .00000043  00000+0  35910-4 0  9995
2 37389  98.3508 145.9157 0013887 346.4076  13.6729 14.25206163787789
GCOM-W1 (SHIZUKU)       
1 38337U 12025A   26168.85782610  .00000362  00000+0  90374-4 0  9991
2 38337  98.2021 109.4033 0001777  74.6237 351.8545 14.57125181749139
NUSTAR                  
1 38358U 12031A   26169.00003472  .00015655  00000+0  91101-3 0  9990
2 38358   6.0280  28.0316 0007138 127.1465  68.5228 15.08803258  1305
NEOSSAT                 
1 39089U 13009D   26168.48826107  .00000106  00000+0  51265-4 0  9990
2 39089  98.4177 348.5137 0009902 242.7674 117.2503 14.35826502696781
BRITE-AUSTRIA           
1 39091U 13009F   26168.41708634  .00000131  00000+0  59167-4 0  9997
2 39091  98.3994 347.8470 0009161 235.6981 124.3339 14.36542205697087
IRIS                    
1 39197U 13033A   26168.50158642  .00000772  00000+0  94677-4 0  9995
2 39197  97.9328   7.7776 0023527 320.7801  39.1708 14.85885727700429
HISAKI (SPRINT-A)       
1 39253U 13049A   26167.83421073  .00000116  00000+0  71628-4 0  9994
2 39253  29.7184 221.8078 0136864  13.9892 346.4420 13.55544715631376
CASSIOPE                
1 39265U 13055A   26168.81808516  .00044002 -50922-6  47993-3 0  9999
2 39265  80.9141  65.9560 0292535  60.3279 302.6736 15.25243540667764
STSAT-3                 
1 39422U 13066G   26168.91181260  .00003144  00000+0  23937-3 0  9995
2 39422  97.6226 138.7883 0011148  43.0890 317.1206 15.02761471684317
